ORBCOMM FM115 [+]       
1 41186U 15081H   23339.69236484  .00001010  00000+0  24317-3 0  9998
2 41186  46.9975 175.3702 0000609 328.5650  31.5200 14.60160224425942
ORBCOMM FM108 [+]       
1 41187U 15081J   23339.77949265  .00001135  00000+0  29248-3 0  9992
2 41187  47.0032 224.3474 0002644 266.6794  93.3788 14.56114126425292
ORBCOMM FM117 [+]       
1 41188U 15081K   23339.05912506  .00001272  00000+0  32315-3 0  9993
2 41188  46.9995 226.6860 0003344 277.6254  82.4251 14.56111734425155
ORBCOMM FM116 [+]       
1 41189U 15081L   23338.97997901  .00001460  00000+0  36541-3 0  9990
2 41189  47.0023 316.8658 0002571 344.8833  15.1975 14.56122943423954
